[{"OBJECT_NAME":"STARLINK-35612","OBJECT_ID":"2025-237Q","EPOCH":"2026-03-02T08:19:41.342592","MEAN_MOTION":15.30190221,"ECCENTRICITY":0.00013383,"INCLINATION":53.1605,"RA_OF_ASC_NODE":73.9248,"ARG_OF_PERICENTER":86.9886,"MEAN_ANOMALY":273.1268,"EPHEMERIS_TYPE":0,"CLASSIFICATION_TYPE":"U","NORAD_CAT_ID":66128,"ELEMENT_SET_NO":999,"REV_AT_EPOCH":2148,"BSTAR":0.00059961128,"MEAN_MOTION_DOT":0.00017436,"MEAN_MOTION_DDOT":0},{"OBJECT_NAME":"STARLINK-35632","OBJECT_ID":"2025-237R","EPOCH":"2026-03-02T09:44:38.115744","MEAN_MOTION":15.30196064,"ECCENTRICITY":0.00013715,"INCLINATION":53.1591,"RA_OF_ASC_NODE":73.5835,"ARG_OF_PERICENTER":68.0327,"MEAN_ANOMALY":292.0819,"EPHEMERIS_TYPE":0,"CLASSIFICATION_TYPE":"U","NORAD_CAT_ID":66129,"ELEMENT_SET_NO":999,"REV_AT_EPOCH":2149,"BSTAR":0.0013534099,"MEAN_MOTION_DOT":0.00039936,"MEAN_MOTION_DDOT":0},{"OBJECT_NAME":"STARLINK-35637","OBJECT_ID":"2025-237S","EPOCH":"2026-03-02T11:09:33.109920","MEAN_MOTION":15.30181258,"ECCENTRICITY":0.00013043,"INCLINATION":53.1585,"RA_OF_ASC_NODE":73.2397,"ARG_OF_PERICENTER":84.0738,"MEAN_ANOMALY":276.0411,"EPHEMERIS_TYPE":0,"CLASSIFICATION_TYPE":"U","NORAD_CAT_ID":66130,"ELEMENT_SET_NO":999,"REV_AT_EPOCH":2150,"BSTAR":0.00093679876,"MEAN_MOTION_DOT":0.00027473,"MEAN_MOTION_DDOT":0},{"OBJECT_NAME":"STARLINK-35630","OBJECT_ID":"2025-237T","EPOCH":"2026-03-02T23:37:25.730112","MEAN_MOTION":15.30203021,"ECCENTRICITY":0.00016007,"INCLINATION":53.1598,"RA_OF_ASC_NODE":70.7913,"ARG_OF_PERICENTER":84.2523,"MEAN_ANOMALY":275.866,"EPHEMERIS_TYPE":0,"CLASSIFICATION_TYPE":"U","NORAD_CAT_ID":66131,"ELEMENT_SET_NO":999,"REV_AT_EPOCH":2158,"BSTAR":0.00081171038,"MEAN_MOTION_DOT":0.00023761,"MEAN_MOTION_DDOT":0},{"OBJECT_NAME":"STARLINK-34412","OBJECT_ID":"2025-237U","EPOCH":"2026-03-02T07:44:44.133792","MEAN_MOTION":15.30200335,"ECCENTRICITY":0.00012119,"INCLINATION":53.1581,"RA_OF_ASC_NODE":73.7703,"ARG_OF_PERICENTER":79.8373,"MEAN_ANOMALY":280.2764,"EPHEMERIS_TYPE":0,"CLASSIFICATION_TYPE":"U","NORAD_CAT_ID":66132,"ELEMENT_SET_NO":999,"REV_AT_EPOCH":2139,"BSTAR":0.0010157524,"MEAN_MOTION_DOT":0.00029846,"MEAN_MOTION_DDOT":0},{"OBJECT_NAME":"STARLINK-35520","OBJECT_ID":"2025-237V","EPOCH":"2026-03-02T07:37:08.063616","MEAN_MOTION":15.30203056,"ECCENTRICITY":0.00013465,"INCLINATION":53.1596,"RA_OF_ASC_NODE":73.7392,"ARG_OF_PERICENTER":89.9284,"MEAN_ANOMALY":270.1871,"EPHEMERIS_TYPE":0,"CLASSIFICATION_TYPE":"U","NORAD_CAT_ID":66133,"ELEMENT_SET_NO":999,"REV_AT_EPOCH":2148,"BSTAR":0.00067282198,"MEAN_MOTION_DOT":0.00019622,"MEAN_MOTION_DDOT":0},{"OBJECT_NAME":"STARLINK-35525","OBJECT_ID":"2025-237W","EPOCH":"2026-03-02T07:02:20.209344","MEAN_MOTION":15.30189552,"ECCENTRICITY":0.00015128,"INCLINATION":53.1604,"RA_OF_ASC_NODE":74.295,"ARG_OF_PERICENTER":100.4418,"MEAN_ANOMALY":259.6754,"EPHEMERIS_TYPE":0,"CLASSIFICATION_TYPE":"U","NORAD_CAT_ID":66134,"ELEMENT_SET_NO":999,"REV_AT_EPOCH":2147,"BSTAR":0.00019158036,"MEAN_MOTION_DOT":5.317e-5,"MEAN_MOTION_DDOT":0},{"OBJECT_NAME":"STARLINK-34852","OBJECT_ID":"2025-237X","EPOCH":"2026-03-02T09:46:07.078368","MEAN_MOTION":15.30170165,"ECCENTRICITY":0.00012209,"INCLINATION":53.1591,"RA_OF_ASC_NODE":73.585,"ARG_OF_PERICENTER":63.4481,"MEAN_ANOMALY":296.6645,"EPHEMERIS_TYPE":0,"CLASSIFICATION_TYPE":"U","NORAD_CAT_ID":66135,"ELEMENT_SET_NO":999,"REV_AT_EPOCH":2145,"BSTAR":0.00034194213,"MEAN_MOTION_DOT":9.772e-5,"MEAN_MOTION_DDOT":0},{"OBJECT_NAME":"STARLINK-35592","OBJECT_ID":"2025-237Y","EPOCH":"2026-03-02T10:42:12.131136","MEAN_MOTION":15.30204526,"ECCENTRICITY":0.00011413,"INCLINATION":53.1586,"RA_OF_ASC_NODE":73.1156,"ARG_OF_PERICENTER":83.6036,"MEAN_ANOMALY":276.5094,"EPHEMERIS_TYPE":0,"CLASSIFICATION_TYPE":"U","NORAD_CAT_ID":66136,"ELEMENT_SET_NO":999,"REV_AT_EPOCH":2150,"BSTAR":0.00098700887,"MEAN_MOTION_DOT":0.00028991,"MEAN_MOTION_DDOT":0},{"OBJECT_NAME":"STARLINK-35576","OBJECT_ID":"2025-237Z","EPOCH":"2026-03-02T07:15:51.729984","MEAN_MOTION":15.30196391,"ECCENTRICITY":0.00014076,"INCLINATION":53.1604,"RA_OF_ASC_NODE":73.6422,"ARG_OF_PERICENTER":83.7558,"MEAN_ANOMALY":276.3603,"EPHEMERIS_TYPE":0,"CLASSIFICATION_TYPE":"U","NORAD_CAT_ID":66137,"ELEMENT_SET_NO":999,"REV_AT_EPOCH":2148,"BSTAR":0.00063072815,"MEAN_MOTION_DOT":0.00018365,"MEAN_MOTION_DDOT":0},{"OBJECT_NAME":"STARLINK-35623","OBJECT_ID":"2025-237AA","EPOCH":"2026-03-02T08:28:48.206208","MEAN_MOTION":15.3019884,"ECCENTRICITY":0.00012731,"INCLINATION":53.1599,"RA_OF_ASC_NODE":73.9585,"ARG_OF_PERICENTER":89.5052,"MEAN_ANOMALY":270.6095,"EPHEMERIS_TYPE":0,"CLASSIFICATION_TYPE":"U","NORAD_CAT_ID":66138,"ELEMENT_SET_NO":999,"REV_AT_EPOCH":2148,"BSTAR":0.00088620765,"MEAN_MOTION_DOT":0.00025979,"MEAN_MOTION_DDOT":0},{"OBJECT_NAME":"STARLINK-35549","OBJECT_ID":"2025-237AB","EPOCH":"2026-03-02T07:24:58.806144","MEAN_MOTION":15.3019394,"ECCENTRICITY":0.00011526,"INCLINATION":53.1594,"RA_OF_ASC_NODE":73.6802,"ARG_OF_PERICENTER":89.1632,"MEAN_ANOMALY":270.9501,"EPHEMERIS_TYPE":0,"CLASSIFICATION_TYPE":"U","NORAD_CAT_ID":66139,"ELEMENT_SET_NO":999,"REV_AT_EPOCH":2148,"BSTAR":0.00069288134,"MEAN_MOTION_DOT":0.00020214,"MEAN_MOTION_DDOT":0},{"OBJECT_NAME":"STARLINK-35625","OBJECT_ID":"2025-237AC","EPOCH":"2026-03-02T07:49:17.534496","MEAN_MOTION":15.30209237,"ECCENTRICITY":0.00013263,"INCLINATION":53.159,"RA_OF_ASC_NODE":73.7892,"ARG_OF_PERICENTER":89.1386,"MEAN_ANOMALY":270.9767,"EPHEMERIS_TYPE":0,"CLASSIFICATION_TYPE":"U","NORAD_CAT_ID":66140,"ELEMENT_SET_NO":999,"REV_AT_EPOCH":2148,"BSTAR":0.00070475495,"MEAN_MOTION_DOT":0.00020577,"MEAN_MOTION_DDOT":0},{"OBJECT_NAME":"STARLINK-35603","OBJECT_ID":"2025-237AD","EPOCH":"2026-03-02T07:00:50.510592","MEAN_MOTION":15.30223683,"ECCENTRICITY":0.00016722,"INCLINATION":53.1606,"RA_OF_ASC_NODE":74.2865,"ARG_OF_PERICENTER":80.8801,"MEAN_ANOMALY":279.2389,"EPHEMERIS_TYPE":0,"CLASSIFICATION_TYPE":"U","NORAD_CAT_ID":66141,"ELEMENT_SET_NO":999,"REV_AT_EPOCH":2147,"BSTAR":0.00090092552,"MEAN_MOTION_DOT":0.00026438,"MEAN_MOTION_DDOT":0},{"OBJECT_NAME":"STARLINK-35318","OBJECT_ID":"2025-240A","EPOCH":"2026-03-02T13:26:54.348000","MEAN_MOTION":15.30195019,"ECCENTRICITY":0.0001373,"INCLINATION":53.1598,"RA_OF_ASC_NODE":96.165,"ARG_OF_PERICENTER":95.5977,"MEAN_ANOMALY":264.5181,"EPHEMERIS_TYPE":0,"CLASSIFICATION_TYPE":"U","NORAD_CAT_ID":66146,"ELEMENT_SET_NO":999,"REV_AT_EPOCH":2094,"BSTAR":0.00093812,"MEAN_MOTION_DOT":0.00027524,"MEAN_MOTION_DDOT":0},{"OBJECT_NAME":"STARLINK-33948","OBJECT_ID":"2025-240B","EPOCH":"2026-03-02T11:43:43.908096","MEAN_MOTION":15.30202741,"ECCENTRICITY":0.0001187,"INCLINATION":53.1598,"RA_OF_ASC_NODE":96.4267,"ARG_OF_PERICENTER":89.4023,"MEAN_ANOMALY":270.7114,"EPHEMERIS_TYPE":0,"CLASSIFICATION_TYPE":"U","NORAD_CAT_ID":66147,"ELEMENT_SET_NO":999,"REV_AT_EPOCH":2093,"BSTAR":0.00054834697,"MEAN_MOTION_DOT":0.00015917,"MEAN_MOTION_DDOT":0}]
