STARLINK-35612          
1 66128U 25237Q   26061.34700628  .00017436  00000+0  59961-3 0  9990
2 66128  53.1605  73.9248 0001338  86.9886 273.1268 15.30190221 21486
STARLINK-35632          
1 66129U 25237R   26061.40599671  .00039936  00000+0  13534-2 0  9996
2 66129  53.1591  73.5835 0001371  68.0327 292.0819 15.30196064 21491
STARLINK-35637          
1 66130U 25237S   26061.46496655  .00027473  00000+0  93680-3 0  9996
2 66130  53.1585  73.2397 0001304  84.0738 276.0411 15.30181258 21507
STARLINK-35630          
1 66131U 25237T   26061.98432558  .00023761  00000+0  81171-3 0  9994
2 66131  53.1598  70.7913 0001600  84.2523 275.8660 15.30203021 21585
STARLINK-34412          
1 66132U 25237U   26061.32273303  .00029846  00000+0  10158-2 0  9990
2 66132  53.1581  73.7703 0001211  79.8373 280.2764 15.30200335 21398
STARLINK-35520          
1 66133U 25237V   26061.31745444  .00019622  00000+0  67282-3 0  9992
2 66133  53.1596  73.7392 0001346  89.9284 270.1871 15.30203056 21481
STARLINK-35525          
1 66134U 25237W   26061.29328946  .00005317  00000+0  19158-3 0  9999
2 66134  53.1604  74.2950 0001512 100.4418 259.6754 15.30189552 21476
STARLINK-34852          
1 66135U 25237X   26061.40702637  .00009772  00000+0  34194-3 0  9992
2 66135  53.1591  73.5850 0001220  63.4481 296.6645 15.30170165 21455
STARLINK-35592          
1 66136U 25237Y   26061.44597374  .00028991  00000+0  98701-3 0  9995
2 66136  53.1586  73.1156 0001141  83.6036 276.5094 15.30204526 21507
STARLINK-35576          
1 66137U 25237Z   26061.30268206  .00018365  00000+0  63073-3 0  9998
2 66137  53.1604  73.6422 0001407  83.7558 276.3603 15.30196391 21486
STARLINK-35623          
1 66138U 25237AA  26061.35333572  .00025979  00000+0  88621-3 0  9998
2 66138  53.1599  73.9585 0001273  89.5052 270.6095 15.30198840 21480
STARLINK-35549          
1 66139U 25237AB  26061.30901396  .00020214  00000+0  69288-3 0  9994
2 66139  53.1594  73.6802 0001152  89.1632 270.9501 15.30193940 21482
STARLINK-35625          
1 66140U 25237AC  26061.32589739  .00020577  00000+0  70475-3 0  9993
2 66140  53.1590  73.7892 0001326  89.1386 270.9767 15.30209237 21480
STARLINK-35603          
1 66141U 25237AD  26061.29225128  .00026438  00000+0  90093-3 0  9999
2 66141  53.1606  74.2865 0001672  80.8801 279.2389 15.30223683 21471
STARLINK-35318          
1 66146U 25240A   26061.56035125  .00027524  00000+0  93812-3 0  9993
2 66146  53.1598  96.1650 0001373  95.5977 264.5181 15.30195019 20945
STARLINK-33948          
1 66147U 25240B   26061.48870264  .00015917  00000+0  54835-3 0  9991
2 66147  53.1598  96.4267 0001187  89.4023 270.7114 15.30202741 20935
